STARLINK-3233           
1 49746U 21115Y   23338.10207021  .00017628  00000+0  11222-2 0  9995
2 49746  53.2162 259.8201 0001585 114.8753 245.2404 15.08862841110743
STARLINK-3247           
1 49747U 21115Z   23338.75344444  .00005775  00000+0  38059-3 0  9996
2 49747  53.2159 256.8948 0001255 109.9728 250.1400 15.08843238110847
STARLINK-3248           
1 49748U 21115AA  23338.04416287  .00006000  00000+0  39486-3 0  9991
2 49748  53.2160 260.0882 0001301 110.1944 249.9188 15.08829451111852
STARLINK-3250           
1 49749U 21115AB  23338.18771928  .00017423  00000+0  11101-2 0  9997
2 49749  53.2168 259.6730 0001233  96.0331 264.0801 15.08838472110754
STARLINK-3236           
1 49750U 21115AC  23338.05152296  .00001219  00000+0  94706-4 0  9996
2 49750  53.2163 260.0547 0001556 114.5043 245.6112 15.08838086110747
STARLINK-3229           
1 49751U 21115AD  23338.23087917  .00007959  00000+0  51741-3 0  9992
2 49751  53.2163 259.1611 0001361 110.6653 249.4485 15.08850912110777
STARLINK-3209           
1 49752U 21115AE  23338.19964271  .00015705  00000+0  10034-2 0  9992
2 49752  53.2159 249.3893 0001377  82.7509 277.3640 15.08812505110906
STARLINK-3200           
1 49753U 21115AF  23338.11313793  .00011337  00000+0  72963-3 0  9999
2 49753  53.2159 259.7691 0001675  81.2612 278.8569 15.08820606110758
STARLINK-3193           
1 49754U 21115AG  23338.66605140  .00002211  00000+0  15696-3 0  9991
2 49754  53.2175 247.3900 0001325 109.0751 251.0385 15.08843246110976
STARLINK-3210           
1 49755U 21115AH  23338.05888943  .00012437  00000+0  79807-3 0  9994
2 49755  53.2169 260.0588 0002034  50.6721 309.4451 15.08841634110746
STARLINK-3207           
1 49756U 21115AJ  23338.73964425  .00006685  00000+0  43775-3 0  9993
2 49756  53.2163 246.9552 0001421 106.1361 253.9788 15.08837485110982
STARLINK-3197           
1 49757U 21115AK  23338.66701189  .00021923  00000+0  13908-2 0  9998
2 49757  53.2147 247.2938 0001458 104.7441 255.3713 15.08852206110971
STARLINK-3194           
1 49758U 21115AL  23338.74700904  .00004603  00000+0  30715-3 0  9994
2 49758  53.2164 246.9191 0001517 133.0793 227.0326 15.08833788110980
STARLINK-3204           
1 49759U 21115AM  23338.13980149  .00001649  00000+0  12169-3 0  9999
2 49759  53.2157 249.6483 0001472 124.6154 235.4977 15.08843970110893
STARLINK-3199           
1 49760U 21115AN  23338.02572400  .00003368  00000+0  22965-3 0  9991
2 49760  53.2157 250.1604 0001474 111.3002 248.8147 15.08836073110886
STARLINK-3203           
1 49761U 21115AP  23338.74332334  .00004851  00000+0  32268-3 0  9996
2 49761  53.2162 246.9374 0001292 109.8318 250.2813 15.08837884110989
STARLINK-3195           
1 49762U 21115AQ  23338.76171887  .00002349  00000+0  16561-3 0  9991
2 49762  53.2174 246.8516 0001245 101.5878 258.5254 15.08837474110994
STARLINK-3198           
1 49763U 21115AR  23338.75068682  .00009148  00000+0  59212-3 0  9993
2 49763  53.2164 246.9028 0001766  73.8907 286.2279 15.08841170110998
STARLINK-3206           
1 49764U 21115AS  23338.04043775 -.00003881  00000+0 -22592-3 0  9993
2 49764  53.2170 250.0898 0001682  94.1905 265.9279 15.08833517112002
STARLINK-3227           
1 49765U 21115AT  23338.03034835 -.00007155  00000+0 -43192-3 0  9997
2 49765  53.2184 250.1438 0001717  81.4870 278.6317 15.08836984110887
STARLINK-3190           
1 49766U 21115AU  23338.04506859  .00000653  00000+0  59112-4 0  9993
2 49766  53.2172 250.0827 0001965 138.6524 221.4617 15.08846836110888
STARLINK-3192           
1 49767U 21115AV  23338.03675452 -.00004254  00000+0 -24938-3 0  9999
2 49767  53.2169 250.1058 0001549  76.2225 283.8940 15.08829508110883
STARLINK-3196           
1 49768U 21115AW  23338.05148272  .00004021  00000+0  27059-3 0  9994
2 49768  53.2163 250.0439 0001496  76.5690 283.5469 15.08838360110889
STARLINK-3208           
1 49769U 21115AX  23338.18492183 -.00000662  00000+0 -23483-4 0  9999
2 49769  53.2167 249.4890 0001533 106.8932 253.2228 15.08841872110907
STARLINK-3191           
1 49770U 21115AY  23338.78844367  .00005270  00000+0  34901-3 0  9996
2 49770  53.2164 246.7836 0001224  78.8415 281.2714 15.08836773112117
STARLINK-3201           
1 49771U 21115AZ  23338.05884704  .00014141  00000+0  90475-3 0  9991
2 49771  53.2162 250.0134 0001282 116.6533 243.4591 15.08842037110886
STARLINK-3317           
1 50156U 21125A   23338.47286528  .00005090  00000+0  33769-3 0  9993
2 50156  53.2173 358.1565 0001728  73.8825 286.2357 15.08835791111906
STARLINK-3313           
1 50157U 21125B   23338.36427654 -.00001227  00000+0 -58964-4 0  9994
2 50157  53.2192   8.6456 0001887  95.7524 264.3683 15.08847998111753
STARLINK-3309           
1 50158U 21125C   23338.48669069  .00004316  00000+0  28916-3 0  9999
2 50158  53.2169   8.1002 0001851  98.1559 261.9643 15.08831318111798
STARLINK-3297           
1 50159U 21125D   23338.48300405 -.00002776  00000+0 -15633-3 0  9998
2 50159  53.2192   8.1096 0002065  63.5866 296.5338 15.08843703111722
STARLINK-3288           
1 50160U 21125E   23338.48940075  .00001572  00000+0  11683-3 0  9995
2 50160  53.2191   8.0762 0001703  88.8169 271.3019 15.08849091111730
STARLINK-3304           
1 50161U 21125F   23338.36060116 -.00003934  00000+0 -22918-3 0  9991
2 50161  53.2191   8.6543 0002005 108.2909 251.8301 15.08845317111700
STARLINK-3303           
1 50162U 21125G   23338.91667824  .00096894  00000+0  49959-3 0  9991
2 50162  53.1798  66.0067 0002513  52.7356  89.3192 15.80402077  6038
STARLINK-3306           
1 50163U 21125H   23338.34404894 -.00001912  00000+0 -10209-3 0  9990
2 50163  53.2176 348.7251 0002090  91.8563 268.2669 15.08831790111985
STARLINK-3298           
1 50165U 21125K   23338.41213803  .00024676  00000+0  15633-2 0  9993
2 50165  53.2171   8.4241 0001746  69.4246 290.6934 15.08834390111766
STARLINK-3305           
1 50166U 21125L   23338.36248571  .00024085  00000+0  15262-2 0  9990
2 50166  53.2177 358.5844 0001683  77.1794 282.9387 15.08839518111847
STARLINK-3271           
1 50167U 21125M   23338.47197533  .00011797  00000+0  75841-3 0  9990
2 50167  53.2191   8.1665 0001625  74.4065 285.7107 15.08823745111723
STARLINK-3296           
1 50168U 21125N   23338.37353267  .00000214  00000+0  31546-4 0  9995
2 50168  53.2180 358.6867 0001752  88.2589 271.8604 15.08840244111859
STARLINK-3301           
1 50169U 21125P   23338.33577630  .00028873  00000+0  18235-2 0  9993
2 50169  53.2168 358.7712 0002152  61.5746 298.5463 15.08865323108760
STARLINK-3245           
1 50170U 21125Q   23338.49032552 -.00002127  00000+0 -11560-3 0  9992
2 50170  53.2176 358.0728 0001865 105.3445 254.7753 15.08831420111866
STARLINK-3286           
1 50171U 21125R   23338.37257264  .00006296  00000+0  41346-3 0  9993
2 50171  53.2179 358.6022 0002185  65.5590 294.5630 15.08824998111360
STARLINK-3287           
1 50172U 21125S   23338.48296752  .00003720  00000+0  25173-3 0  9990
2 50172  53.2190 358.1071 0001805 115.2229 244.8950 15.08834627111906
STARLINK-3289           
1 50173U 21125T   23338.31830570  .00027342  00000+0  17290-2 0  9991
2 50173  53.2169 348.9147 0001565  98.9406 261.1763 15.08848111111997
STARLINK-3292           
1 50174U 21125U   23338.33944078 -.00004196  00000+0 -24559-3 0  9994
2 50174  53.2180 358.7546 0001793  91.8259 268.2939 15.08854063111899
STARLINK-3291           
1 50175U 21125V   23338.36152128 -.00001412  00000+0 -70586-4 0  9995
2 50175  53.2193 358.6569 0001872  89.6638 270.4568 15.08844098111858
STARLINK-3293           
1 50176U 21125W   23338.34313387  .00002976  00000+0  20503-3 0  9997
2 50176  53.2181 358.7461 0001847  69.7177 290.4014 15.08829642111897
STARLINK-3282           
1 50177U 21125X   23338.48665685  .00014588  00000+0  93303-3 0  9994
2 50177  53.2177 358.0899 0001796  69.4516 290.6669 15.08829317111873
STARLINK-3284           
1 50178U 21125Y   23338.29989926 -.00002330  00000+0 -12828-3 0  9998
2 50178  53.2181 358.7849 0001786 110.5968 249.5216 15.08853129111889
STARLINK-3283           
1 50179U 21125Z   23338.34679159  .00000044  00000+0  20836-4 0  9996
2 50179  53.2162 358.7225 0001722 108.4723 251.6456 15.08839256111854
STARLINK-3265           
1 50180U 21125AA  23338.46552410 -.00001643  00000+0 -85133-4 0  9990
2 50180  53.2200 358.1935 0001956  73.0989 287.0218 15.08844180111919
STARLINK-3285           
1 50181U 21125AB  23338.32569237  .00017085  00000+0  10889-2 0  9990
2 50181  53.2171 358.8225 0001454 105.4444 254.6708 15.08841842111854
STARLINK-3277           
1 50182U 21125AC  23338.36886086 -.00000152  00000+0  85614-5 0  9998
2 50182  53.2195 358.4672 0001971 104.5256 255.5955 15.08850176111896
STARLINK-3281           
1 50183U 21125AD  23338.38727892 -.00002224  00000+0 -12162-3 0  9999
2 50183  53.2196 358.5347 0001953  74.3944 285.7263 15.08851849111903
STARLINK-3279           
1 50185U 21125AF  23338.33209963  .00041019  00000+0  25812-2 0  9998
2 50185  53.2168 358.8221 0001810  69.7708 290.3479 15.08828994111856
STARLINK-3274           
1 50186U 21125AG  23338.34220859 -.00000705  00000+0 -26219-4 0  9990
2 50186  53.2180   8.7398 0001776  58.6861 301.4305 15.08830622111229
STARLINK-3272           
1 50187U 21125AH  23338.30356417  .00006691  00000+0  43802-3 0  9991
2 50187  53.2190 348.9142 0002267  77.8595 282.2651 15.08845648111965
STARLINK-3275           
1 50188U 21125AJ  23338.21348156 -.00006207  00000+0 -32101-3 0  9998
2 50188  53.2234 331.7240 0001766 100.3031 259.8163 15.14075393112265
STARLINK-3276           
1 50189U 21125AK  23338.44345004 -.00000271  00000+0  10667-5 0  9992
2 50189  53.2186 358.2947 0001789 100.6619 259.4574 15.08829112111901
STARLINK-3268           
1 50190U 21125AL  23338.42498430  .00001215  00000+0  94364-4 0  9997
2 50190  53.2181 348.3676 0001991 102.7787 257.3428 15.08861396111995
